{
    "links": {
        "self": "http://www.neowsapp.com/rest/v1/neo/3841957?api_key=iIulBulltgU6a56xZRHN4H3l9WmuAYTsLGpBGhQ2"
    },
    "id": "3841957",
    "neo_reference_id": "3841957",
    "name": "(2019 JZ7)",
    "designation": "2019 JZ7",
    "nasa_jpl_url": "http://ssd.jpl.nasa.gov/sbdb.cgi?sstr=3841957",
    "absolute_magnitude_h": 24.1,
    "estimated_diameter": {
        "kilometers": {
            "estimated_diameter_min": 0.040230458,
            "estimated_diameter_max": 0.0899580388
        },
        "meters": {
            "estimated_diameter_min": 40.2304579834,
            "estimated_diameter_max": 89.9580388169
        },
        "miles": {
            "estimated_diameter_min": 0.0249980399,
            "estimated_diameter_max": 0.0558973165
        },
        "feet": {
            "estimated_diameter_min": 131.9896957704,
            "estimated_diameter_max": 295.1379320721
        }
    },
    "is_potentially_hazardous_asteroid": false,
    "close_approach_data": [
        {
            "close_approach_date": "1965-05-26",
            "close_approach_date_full": "1965-May-26 05:34",
            "epoch_date_close_approach": -145218360000,
            "relative_velocity": {
                "kilometers_per_second": "32.2249663668",
                "kilometers_per_hour": "116009.8789205066",
                "miles_per_hour": "72084.0272659115"
            },
            "miss_distance": {
                "astronomical": "0.3973827971",
                "lunar": "154.5819080719",
                "kilometers": "59447620.020802177",
                "miles": "36939038.1949649626"
            },
            "orbiting_body": "Earth"
        },
        {
            "close_approach_date": "2001-05-26",
            "close_approach_date_full": "2001-May-26 19:13",
            "epoch_date_close_approach": 990904380000,
            "relative_velocity": {
                "kilometers_per_second": "31.9422351058",
                "kilometers_per_hour": "114992.0463808926",
                "miles_per_hour": "71451.5857081718"
            },
            "miss_distance": {
                "astronomical": "0.3750724031",
                "lunar": "145.9031648059",
                "kilometers": "56110032.599541397",
                "miles": "34865157.5385173986"
            },
            "orbiting_body": "Earth"
        },
        {
            "close_approach_date": "2019-05-07",
            "close_approach_date_full": "2019-May-07 07:43",
            "epoch_date_close_approach": 1557214980000,
            "relative_velocity": {
                "kilometers_per_second": "20.5124781346",
                "kilometers_per_hour": "73844.921284438",
                "miles_per_hour": "45884.3623392109"
            },
            "miss_distance": {
                "astronomical": "0.0171206751",
                "lunar": "6.6599426139",
                "kilometers": "2561216.527922037",
                "miles": "1591466.1531846306"
            },
            "orbiting_body": "Earth"
        }
    ],
    "orbital_data": {
        "orbit_id": "1",
        "orbit_determination_date": "2019-05-24 10:12:08",
        "first_observation_date": "2019-05-14",
        "last_observation_date": "2019-05-23",
        "data_arc_in_days": 9,
        "observations_used": 32,
        "orbit_uncertainty": "9",
        "minimum_orbit_intersection": ".00527942",
        "jupiter_tisserand_invariant": "3.389",
        "epoch_osculation": "2458621.5",
        "eccentricity": ".718671493087171",
        "semi_major_axis": "2.071486871010444",
        "inclination": ".9822396741906747",
        "ascending_node_longitude": "29.51645887424778",
        "orbital_period": "1088.984515628896",
        "perihelion_distance": ".5827683085108962",
        "perihelion_argument": "107.0691936544953",
        "aphelion_distance": "3.560205433509993",
        "perihelion_time": "2458563.592843016791",
        "mean_anomaly": "19.1431340067459",
        "mean_motion": ".3305832129230023",
        "equinox": "J2000",
        "orbit_class": {
            "orbit_class_type": "APO",
            "orbit_class_description": "Near-Earth asteroid orbits which cross the Earth’s orbit similar to that of 1862 Apollo",
            "orbit_class_range": "a (semi-major axis) > 1.0 AU; q (perihelion) < 1.017 AU"
        }
    },
    "is_sentry_object": false
}